MEAN_MOTION,ECCENTRICITY,INCLINATION,RA_OF_ASC_NODE,ARG_OF_PERICENTER,MEAN_ANOMALY,REV_AT_EPOCH,BSTAR,MEAN_MOTION_DOT,MEAN_MOTION_DDOT,SEMIMAJOR_AXIS,PERIOD,APOAPSIS,PERIAPSIS,AP_DIFF,SEMIMINOR_AXIS,ORBITAL_VELOCITY,TARGET,RCS_SIZE_MEDIUM,RCS_SIZE_SMALL
14.09951451,0.0020966,98.8407,338.7909,126.4345,49.4819,76047,0.00027284,4.38e-06,0.0,7237.675,102.131,874.714,844.365,30.349000000000046,7237.65909254431,7.421118202460862,1,0,1
14.37646947,0.013498,98.9721,135.1747,254.0331,232.8869,77058,0.001139,3.749e-05,0.0,7144.421,100.164,862.721,669.85,192.871,7143.770127873528,7.469394003871055,1,0,1
13.92788602,0.0131319,98.4752,289.226,277.0985,259.2648,75152,0.00025738,3.18e-06,0.0,7297.012,103.39,1014.7,823.053,191.64700000000005,7296.382799697175,7.390883516017093,1,0,1
14.93434438,0.005387,99.0823,196.857,49.4375,76.2515,78964,0.0018403,0.0001987,0.0,6965.373,96.422,624.761,549.716,75.04499999999996,6965.271932509026,7.564786906018885,1,0,1
14.13164727,0.002236,98.9021,350.5606,102.8151,15.3346,76142,0.00040513,7.15e-06,0.0,7226.699,101.899,864.723,832.405,32.317999999999984,7226.680934328377,7.426751707360235,1,0,1
13.96688789,0.0140958,98.4466,244.8783,192.4336,181.8186,75248,0.00066597,9.65e-06,0.0,7283.421,103.101,1007.952,802.62,205.332,7282.6973868497025,7.39777606564282,1,0,1
14.10324968,0.0047855,98.9384,355.1211,260.1925,275.6278,75898,0.00062279,1.072e-05,0.0,7236.397,102.104,892.892,823.632,69.2600000000001,7236.314139124662,7.4217734850797985,1,0,1
14.27378472,0.0024118,99.0879,131.4814,117.1225,243.2418,76674,0.00075587,1.811e-05,0.0,7178.644,100.884,817.822,783.195,34.62699999999995,7178.623121675943,7.451568181754809,1,0,1
14.00044333,0.01157,99.199,345.7931,148.7436,212.0675,75328,0.0005926,8.8e-06,0.0,7271.779,102.854,977.778,809.509,168.269,7271.292265725968,7.403695556965206,1,0,1
13.96249105,0.0106631,98.8262,171.8435,142.4203,232.2753,75209,0.000857,1.196e-05,0.0,7284.95,103.133,984.495,829.135,155.36,7284.53583262121,7.396999684667057,1,0,1
13.89097262,0.0130971,99.0181,324.624,59.1434,8.8879,74951,0.00026831,3.07e-06,0.0,7309.933,103.664,1027.537,836.059,191.4780000000001,7309.306021984382,7.384348583103375,1,0,1
13.9713833,0.010744,99.3021,2.5022,328.8588,42.8441,75109,0.0012225,1.748e-05,0.0,7281.859,103.068,981.96,825.487,156.47300000000007,7281.438702504031,7.398569455532013,1,0,1
13.83451594,0.0183763,98.0153,296.7429,327.8836,43.9103,74609,0.00034605,3.98e-06,0.0,7329.807,104.087,1086.367,816.977,269.39,7328.569300096688,7.374330846104154,1,0,1
14.13240663,0.0145788,98.9769,168.8907,3.0611,9.9327,75469,0.002709,5.573e-05,0.0,7226.44,101.893,953.658,742.953,210.70500000000004,7225.67200031848,7.426884795814398,1,0,1
13.84841267,0.0139646,99.4115,55.4456,235.2877,188.7729,74709,0.00034783,3.77e-06,0.0,7324.902,103.983,1049.057,844.478,204.5790000000001,7324.187750412633,7.376799482509294,1,0,1
14.82209027,0.005828,99.0455,110.8295,159.8002,330.0932,78683,0.0020622,0.00016905,0.0,7000.497,97.152,663.161,581.563,81.59799999999996,7000.37811100601,7.5457854194797696,1,0,1
13.8365884,0.0152906,98.8675,133.7717,76.5372,298.8464,74655,0.00031733,3.44e-06,0.0,7329.075,104.072,1063.006,838.874,224.1320000000001,7328.218172075349,7.374699096899986,1,0,1
13.81090897,0.0168581,99.1809,340.897,339.3198,197.2155,74492,0.00026015,2.62e-06,0.0,7338.157,104.265,1083.729,836.315,247.414,7337.114190174759,7.370134071008703,1,0,1
13.85244654,0.0180752,99.1074,173.288,200.9059,158.4639,74491,0.0012349,1.55e-05,0.0,7323.48,103.953,1077.719,812.972,264.74700000000007,7322.283564739507,7.377515624269226,1,0,1
13.7444475,0.0208899,100.4757,129.3962,210.7904,275.2612,74104,0.00054367,5.49e-06,0.0,7361.794,104.77,1137.446,829.872,307.574,7360.18752572642,7.358292669364129,1,0,1
13.78410842,0.0195525,98.4334,118.2205,332.2082,40.0842,74230,0.00075307,8.39e-06,0.0,7347.666,104.468,1113.196,825.865,287.3309999999999,7346.26135844114,7.3653634884891,1,0,1
13.63652001,0.0263728,99.7887,339.7169,227.6417,130.2122,73317,0.001526,1.481e-05,0.0,7400.586,105.599,1217.626,827.277,390.34899999999993,7398.011907601903,7.338982176407136,1,0,1
13.73998715,0.0205923,98.9158,348.2406,311.5021,226.4656,74011,0.00071969,7.45e-06,0.0,7363.387,104.804,1136.881,833.623,303.25800000000004,7361.825638769943,7.357496677365867,1,0,1
14.24548746,0.0047334,98.795,8.6321,284.1381,137.2169,76558,0.00060736,1.38e-05,0.0,7188.147,101.085,844.037,775.988,68.04899999999998,7188.066474060614,7.446640926369789,1,0,1
13.39854582,0.0350189,98.9003,53.3198,308.6083,107.5435,72276,0.00084528,6.17e-06,0.0,7487.958,107.474,1372.043,847.603,524.4399999999999,7483.365262626173,7.296039691909841,1,0,1
13.43225776,0.0345616,100.4459,204.2028,272.3739,213.1419,72334,0.00023404,1.4e-06,0.0,7475.424,107.205,1355.652,838.926,516.726,7470.957953261543,7.302153743820676,1,0,1
13.45118891,0.0337481,99.5511,45.3706,140.6369,234.1503,72399,0.0015936,1.284e-05,0.0,7468.408,107.054,1342.318,838.229,504.089,7464.153775488828,7.305582847064385,1,0,1
13.33354418,0.038828,98.6913,258.2805,39.397,79.7522,71876,0.0018387,1.348e-05,0.0,7512.274,107.998,1425.826,842.453,583.373,7506.609060895302,7.284222078751443,1,0,1
13.7411437,0.0389203,99.583,125.4868,232.8391,123.6622,72863,0.0043038,6.972e-05,0.0,7362.974,104.795,1271.408,698.27,573.1379999999999,7357.395207744942,7.357703020856854,1,0,1
14.4138074,0.0158838,99.0336,276.1605,297.2311,73.92,77682,0.00020049,6.97e-06,0.0,7132.077,99.904,867.227,640.658,226.569,7131.177249197078,7.475855118832536,1,0,1
14.27776122,0.0144738,97.3981,209.0218,83.3895,278.3741,76745,0.00057721,1.561e-05,0.0,7177.311,100.856,903.059,695.293,207.766,7176.559170000732,7.452260117720269,1,0,1
14.21410247,0.033088,98.4673,29.3036,34.093,339.6674,76161,0.00053676,1.999e-05,0.0,7198.724,101.308,1058.781,582.398,476.3829999999999,7194.782282655042,7.441168284705618,1,0,1
13.97770479,0.0073428,98.8428,326.0121,124.798,290.2242,75393,0.00015857,1.88e-06,0.0,7279.663,103.021,954.981,848.075,106.90599999999996,7279.466749608538,7.399685306184216,1,0,1
13.95223194,0.0189187,98.4312,262.0058,141.8575,219.6154,75293,0.00032433,4.72e-06,0.0,7288.521,103.209,1048.275,772.496,275.7790000000001,7287.216539717814,7.39518738817194,1,0,1
14.01149662,0.0085854,99.1273,242.7732,50.6687,65.0931,75396,0.00087343,1.31e-05,0.0,7267.954,102.773,952.217,827.42,124.79700000000004,7267.686137914707,7.405643519934994,1,0,1
14.01976628,0.0092869,99.0866,359.8153,159.0116,266.8736,75433,0.00091755,1.408e-05,0.0,7265.095,102.712,954.431,819.49,134.94100000000003,7264.781698694436,7.407100531318231,1,0,1
14.28612175,0.0052342,98.7787,26.0804,227.5733,198.016,76671,0.00096037,2.402e-05,0.0,7174.511,100.797,833.928,758.823,75.10500000000002,7174.4127198273,7.453714174508856,1,0,1
13.82066454,0.0148535,99.5673,329.6104,229.8288,142.4446,74562,0.00021884,2.09e-06,0.0,7334.703,104.192,1065.514,847.622,217.892,7333.893840579771,7.371869209217453,1,0,1
13.5625417,0.0475067,98.6481,45.5375,113.6182,57.9194,73066,0.00056152,7.88e-06,0.0,7427.474,106.175,1402.193,696.484,705.709,7419.087782575387,7.325686305933062,1,0,1
13.52131,0.0303841,102.2709,156.1445,288.9342,82.2263,72818,0.00072635,5.73e-06,0.0,7442.565,106.499,1290.566,838.295,452.2710000000001,7439.128742796506,7.318255532443329,1,0,1
14.86175348,0.0061409,99.0402,126.4791,78.5305,282.2795,78836,0.0013847,0.00012523,0.0,6988.036,96.893,652.814,566.988,85.82599999999991,6987.904237058062,7.552510209676082,1,0,1
14.16014904,0.0046917,98.9369,357.6896,357.4759,64.6599,76156,0.00055971,1.071e-05,0.0,7216.999,101.694,872.724,805.004,67.72000000000003,7216.919569095475,7.431740990417079,1,0,1
13.95573991,0.0075964,99.2746,341.494,164.2666,11.4121,75340,-9.4213e-05,-1.76e-06,0.0,7287.299,103.183,964.521,853.807,110.71399999999994,7287.088739104824,7.395807408029235,1,0,1
14.0882837,0.0028344,98.9588,345.803,173.502,1.9507,75958,0.0003457,5.55e-06,0.0,7241.521,102.213,883.911,842.86,41.05099999999993,7241.49191139129,7.419147248343985,1,0,1
14.68198516,0.0127488,98.959,72.4578,94.2559,267.3223,78734,0.00052584,3.361e-05,0.0,7044.962,98.079,756.642,577.012,179.6300000000001,7044.389461200384,7.5219347267043055,1,0,1
14.56036987,0.0138724,98.77,249.2923,223.5896,259.4177,78281,0.00022391,1.063e-05,0.0,7084.136,98.899,804.275,607.727,196.548,7083.45431930362,7.501108421186418,1,0,1
14.38123245,0.0124403,98.9079,139.5847,288.3512,83.755,77503,0.00027924,8.74e-06,0.0,7142.843,100.131,853.567,675.849,177.71799999999996,7142.290261621924,7.47021902920264,1,0,1
14.35536678,0.0056209,101.25,69.0591,120.2848,250.394,76896,0.0012991,3.743e-05,0.0,7151.42,100.311,813.483,733.088,80.39499999999998,7151.307026277953,7.465738010661789,1,0,1
14.25115885,0.0087909,98.6633,37.1443,117.8767,0.9365,76969,2.7228e-05,2.4e-07,0.0,7186.24,101.044,871.279,744.932,126.34699999999998,7185.962318598849,7.447628911899418,1,0,1
14.28773981,0.0064852,99.0433,157.8852,276.779,206.2426,76972,0.00030091,7.27e-06,0.0,7173.969,100.786,842.358,749.309,93.04899999999998,7173.818137668748,7.453995736694354,1,0,1
14.29722398,0.0144851,98.3016,93.5179,16.0118,158.5555,76937,0.00037456,1.033e-05,0.0,7170.796,100.719,896.531,688.791,207.7399999999999,7170.04367906027,7.45564471071792,1,0,1
14.28167855,0.0092585,98.53,344.9003,79.2507,94.559,76910,0.00037147,9.26e-06,0.0,7175.998,100.828,864.302,731.425,132.87700000000007,7175.690430772151,7.45294186052391,1,0,1
14.20258932,0.0151777,98.9883,76.6188,72.9808,288.7935,76629,7.3725e-05,1.32e-06,0.0,7202.614,101.39,933.798,715.16,218.63800000000003,7201.784345854799,7.43915859391808,1,0,1
14.18875872,0.003037,99.4604,324.6632,234.0667,125.7688,76505,0.00018537,3.38e-06,0.0,7207.294,101.489,851.048,807.27,43.77800000000002,7207.260762157332,7.436742921974503,1,0,1
14.2785454,0.006085,98.7164,10.8418,190.9374,169.0487,76707,0.00067361,1.655e-05,0.0,7177.048,100.851,842.586,755.241,87.34500000000003,7176.915125684431,7.452396658987372,1,0,1
